<?xml version="1.0" encoding="UTF-8"?>
<ndm xmlns:xsi="http://www.w3.org/2001/XMLSchema-instance" xsi:noNamespaceSchemaLocation="https://sanaregistry.org/r/ndmxml_unqualified/ndmxml-2.0.0-master-2.0.xsd">
<omm id="CCSDS_OMM_VERS" version="2.0">
<header><CREATION_DATE/><ORIGINATOR/></header><body><segment><metadata><OBJECT_NAME>GLOBALSTAR M063 [+]</OBJECT_NAME><OBJECT_ID>2000-008A</OBJECT_ID><CENTER_NAME>EARTH</CENTER_NAME><REF_FRAME>TEME</REF_FRAME><TIME_SYSTEM>UTC</TIME_SYSTEM><MEAN_ELEMENT_THEORY>SGP4</MEAN_ELEMENT_THEORY></metadata><data><meanElements><EPOCH>2023-11-26T20:45:15.893856</EPOCH><MEAN_MOTION>11.86148292</MEAN_MOTION><ECCENTRICITY>.0003642</ECCENTRICITY><INCLINATION>51.9921</INCLINATION><RA_OF_ASC_NODE>168.2988</RA_OF_ASC_NODE><ARG_OF_PERICENTER>318.0779</ARG_OF_PERICENTER><MEAN_ANOMALY>142.5241</MEAN_ANOMALY></meanElements><tleParameters><EPHEMERIS_TYPE>0</EPHEMERIS_TYPE><CLASSIFICATION_TYPE>U</CLASSIFICATION_TYPE><NORAD_CAT_ID>26081</NORAD_CAT_ID><ELEMENT_SET_NO>999</ELEMENT_SET_NO><REV_AT_EPOCH>9013</REV_AT_EPOCH><BSTAR>.72713E-3</BSTAR><MEAN_MOTION_DOT>-.33E-6</MEAN_MOTION_DOT><MEAN_MOTION_DDOT>0</MEAN_MOTION_DDOT></tleParameters></data></segment></body></omm>
<omm id="CCSDS_OMM_VERS" version="2.0">
<header><CREATION_DATE/><ORIGINATOR/></header><body><segment><metadata><OBJECT_NAME>GLOBALSTAR M062 [-]</OBJECT_NAME><OBJECT_ID>2000-008B</OBJECT_ID><CENTER_NAME>EARTH</CENTER_NAME><REF_FRAME>TEME</REF_FRAME><TIME_SYSTEM>UTC</TIME_SYSTEM><MEAN_ELEMENT_THEORY>SGP4</MEAN_ELEMENT_THEORY></metadata><data><meanElements><EPOCH>2023-11-26T10:18:28.222848</EPOCH><MEAN_MOTION>12.43422059</MEAN_MOTION><ECCENTRICITY>.0007029</ECCENTRICITY><INCLINATION>51.9861</INCLINATION><RA_OF_ASC_NODE>328.2647</RA_OF_ASC_NODE><ARG_OF_PERICENTER>340.4586</ARG_OF_PERICENTER><MEAN_ANOMALY>166.4222</MEAN_ANOMALY></meanElements><tleParameters><EPHEMERIS_TYPE>0</EPHEMERIS_TYPE><CLASSIFICATION_TYPE>U</CLASSIFICATION_TYPE><NORAD_CAT_ID>26082</NORAD_CAT_ID><ELEMENT_SET_NO>999</ELEMENT_SET_NO><REV_AT_EPOCH>42586</REV_AT_EPOCH><BSTAR>.50191E-3</BSTAR><MEAN_MOTION_DOT>-.28E-6</MEAN_MOTION_DOT><MEAN_MOTION_DDOT>0</MEAN_MOTION_DDOT></tleParameters></data></segment></body></omm>
<omm id="CCSDS_OMM_VERS" version="2.0">
<header><CREATION_DATE/><ORIGINATOR/></header><body><segment><metadata><OBJECT_NAME>GLOBALSTAR M060 [-]</OBJECT_NAME><OBJECT_ID>2000-008C</OBJECT_ID><CENTER_NAME>EARTH</CENTER_NAME><REF_FRAME>TEME</REF_FRAME><TIME_SYSTEM>UTC</TIME_SYSTEM><MEAN_ELEMENT_THEORY>SGP4</MEAN_ELEMENT_THEORY></metadata><data><meanElements><EPOCH>2023-11-26T20:31:25.371264</EPOCH><MEAN_MOTION>12.17620472</MEAN_MOTION><ECCENTRICITY>.0004528</ECCENTRICITY><INCLINATION>52.0006</INCLINATION><RA_OF_ASC_NODE>206.6195</RA_OF_ASC_NODE><ARG_OF_PERICENTER>56.2980</ARG_OF_PERICENTER><MEAN_ANOMALY>24.8545</MEAN_ANOMALY></meanElements><tleParameters><EPHEMERIS_TYPE>0</EPHEMERIS_TYPE><CLASSIFICATION_TYPE>U</CLASSIFICATION_TYPE><NORAD_CAT_ID>26083</NORAD_CAT_ID><ELEMENT_SET_NO>999</ELEMENT_SET_NO><REV_AT_EPOCH>8313</REV_AT_EPOCH><BSTAR>-.31188E-3</BSTAR><MEAN_MOTION_DOT>-.122E-5</MEAN_MOTION_DOT><MEAN_MOTION_DDOT>0</MEAN_MOTION_DDOT></tleParameters></data></segment></body></omm>
<omm id="CCSDS_OMM_VERS" version="2.0">
<header><CREATION_DATE/><ORIGINATOR/></header><body><segment><metadata><OBJECT_NAME>GLOBALSTAR M064 [-]</OBJECT_NAME><OBJECT_ID>2000-008D</OBJECT_ID><CENTER_NAME>EARTH</CENTER_NAME><REF_FRAME>TEME</REF_FRAME><TIME_SYSTEM>UTC</TIME_SYSTEM><MEAN_ELEMENT_THEORY>SGP4</MEAN_ELEMENT_THEORY></metadata><data><meanElements><EPOCH>2023-11-26T06:56:23.690112</EPOCH><MEAN_MOTION>11.88512237</MEAN_MOTION><ECCENTRICITY>.0002198</ECCENTRICITY><INCLINATION>52.0034</INCLINATION><RA_OF_ASC_NODE>275.3518</RA_OF_ASC_NODE><ARG_OF_PERICENTER>45.2153</ARG_OF_PERICENTER><MEAN_ANOMALY>314.8858</MEAN_ANOMALY></meanElements><tleParameters><EPHEMERIS_TYPE>0</EPHEMERIS_TYPE><CLASSIFICATION_TYPE>U</CLASSIFICATION_TYPE><NORAD_CAT_ID>26084</NORAD_CAT_ID><ELEMENT_SET_NO>999</ELEMENT_SET_NO><REV_AT_EPOCH>9945</REV_AT_EPOCH><BSTAR>.51878E-3</BSTAR><MEAN_MOTION_DOT>-.47E-6</MEAN_MOTION_DOT><MEAN_MOTION_DDOT>0</MEAN_MOTION_DDOT></tleParameters></data></segment></body></omm>
<omm id="CCSDS_OMM_VERS" version="2.0">
<header><CREATION_DATE/><ORIGINATOR/></header><body><segment><metadata><OBJECT_NAME>GLOBALSTAR M065 [+]</OBJECT_NAME><OBJECT_ID>2007-020A</OBJECT_ID><CENTER_NAME>EARTH</CENTER_NAME><REF_FRAME>TEME</REF_FRAME><TIME_SYSTEM>UTC</TIME_SYSTEM><MEAN_ELEMENT_THEORY>SGP4</MEAN_ELEMENT_THEORY></metadata><data><meanElements><EPOCH>2023-11-26T17:13:38.007264</EPOCH><MEAN_MOTION>12.61959075</MEAN_MOTION><ECCENTRICITY>.0010765</ECCENTRICITY><INCLINATION>51.9865</INCLINATION><RA_OF_ASC_NODE>156.4262</RA_OF_ASC_NODE><ARG_OF_PERICENTER>126.4933</ARG_OF_PERICENTER><MEAN_ANOMALY>314.4371</MEAN_ANOMALY></meanElements><tleParameters><EPHEMERIS_TYPE>0</EPHEMERIS_TYPE><CLASSIFICATION_TYPE>U</CLASSIFICATION_TYPE><NORAD_CAT_ID>31571</NORAD_CAT_ID><ELEMENT_SET_NO>999</ELEMENT_SET_NO><REV_AT_EPOCH>76163</REV_AT_EPOCH><BSTAR>.40758E-3</BSTAR><MEAN_MOTION_DOT>-.31E-6</MEAN_MOTION_DOT><MEAN_MOTION_DDOT>0</MEAN_MOTION_DDOT></tleParameters></data></segment></body></omm>
<omm id="CCSDS_OMM_VERS" version="2.0">
<header><CREATION_DATE/><ORIGINATOR/></header><body><segment><metadata><OBJECT_NAME>GLOBALSTAR M069 [+]</OBJECT_NAME><OBJECT_ID>2007-020C</OBJECT_ID><CENTER_NAME>EARTH</CENTER_NAME><REF_FRAME>TEME</REF_FRAME><TIME_SYSTEM>UTC</TIME_SYSTEM><MEAN_ELEMENT_THEORY>SGP4</MEAN_ELEMENT_THEORY></metadata><data><meanElements><EPOCH>2023-11-26T14:27:13.491072</EPOCH><MEAN_MOTION>12.62261258</MEAN_MOTION><ECCENTRICITY>.0001204</ECCENTRICITY><INCLINATION>51.9929</INCLINATION><RA_OF_ASC_NODE>112.8659</RA_OF_ASC_NODE><ARG_OF_PERICENTER>116.0825</ARG_OF_PERICENTER><MEAN_ANOMALY>324.2864</MEAN_ANOMALY></meanElements><tleParameters><EPHEMERIS_TYPE>0</EPHEMERIS_TYPE><CLASSIFICATION_TYPE>U</CLASSIFICATION_TYPE><NORAD_CAT_ID>31573</NORAD_CAT_ID><ELEMENT_SET_NO>999</ELEMENT_SET_NO><REV_AT_EPOCH>76274</REV_AT_EPOCH><BSTAR>.66841E-4</BSTAR><MEAN_MOTION_DOT>-.92E-6</MEAN_MOTION_DOT><MEAN_MOTION_DDOT>0</MEAN_MOTION_DDOT></tleParameters></data></segment></body></omm>
<omm id="CCSDS_OMM_VERS" version="2.0">
<header><CREATION_DATE/><ORIGINATOR/></header><body><segment><metadata><OBJECT_NAME>GLOBALSTAR M072 [+]</OBJECT_NAME><OBJECT_ID>2007-020D</OBJECT_ID><CENTER_NAME>EARTH</CENTER_NAME><REF_FRAME>TEME</REF_FRAME><TIME_SYSTEM>UTC</TIME_SYSTEM><MEAN_ELEMENT_THEORY>SGP4</MEAN_ELEMENT_THEORY></metadata><data><meanElements><EPOCH>2023-11-26T20:17:43.581120</EPOCH><MEAN_MOTION>12.62269005</MEAN_MOTION><ECCENTRICITY>.0001495</ECCENTRICITY><INCLINATION>52.0071</INCLINATION><RA_OF_ASC_NODE>207.8853</RA_OF_ASC_NODE><ARG_OF_PERICENTER>75.7978</ARG_OF_PERICENTER><MEAN_ANOMALY>48.9081</MEAN_ANOMALY></meanElements><tleParameters><EPHEMERIS_TYPE>0</EPHEMERIS_TYPE><CLASSIFICATION_TYPE>U</CLASSIFICATION_TYPE><NORAD_CAT_ID>31574</NORAD_CAT_ID><ELEMENT_SET_NO>999</ELEMENT_SET_NO><REV_AT_EPOCH>76104</REV_AT_EPOCH><BSTAR>.31959E-3</BSTAR><MEAN_MOTION_DOT>-.47E-6</MEAN_MOTION_DOT><MEAN_MOTION_DDOT>0</MEAN_MOTION_DDOT></tleParameters></data></segment></body></omm>
<omm id="CCSDS_OMM_VERS" version="2.0">
<header><CREATION_DATE/><ORIGINATOR/></header><body><segment><metadata><OBJECT_NAME>GLOBALSTAR M071 [P]</OBJECT_NAME><OBJECT_ID>2007-020F</OBJECT_ID><CENTER_NAME>EARTH</CENTER_NAME><REF_FRAME>TEME</REF_FRAME><TIME_SYSTEM>UTC</TIME_SYSTEM><MEAN_ELEMENT_THEORY>SGP4</MEAN_ELEMENT_THEORY></metadata><data><meanElements><EPOCH>2023-11-26T17:07:10.650144</EPOCH><MEAN_MOTION>12.62273192</MEAN_MOTION><ECCENTRICITY>.0000956</ECCENTRICITY><INCLINATION>52.0048</INCLINATION><RA_OF_ASC_NODE>117.5357</RA_OF_ASC_NODE><ARG_OF_PERICENTER>100.2306</ARG_OF_PERICENTER><MEAN_ANOMALY>3.9701</MEAN_ANOMALY></meanElements><tleParameters><EPHEMERIS_TYPE>0</EPHEMERIS_TYPE><CLASSIFICATION_TYPE>U</CLASSIFICATION_TYPE><NORAD_CAT_ID>31576</NORAD_CAT_ID><ELEMENT_SET_NO>999</ELEMENT_SET_NO><REV_AT_EPOCH>42394</REV_AT_EPOCH><BSTAR>.52631E-4</BSTAR><MEAN_MOTION_DOT>-.94E-6</MEAN_MOTION_DOT><MEAN_MOTION_DDOT>0</MEAN_MOTION_DDOT></tleParameters></data></segment></body></omm>

</ndm>
