GLOBALSTAR M063 [+]     
1 26081U 00008A   23330.86476729 -.00000033  00000+0  72713-3 0  9994
2 26081  51.9921 168.2988 0003642 318.0779 142.5241 11.86148292 90132
GLOBALSTAR M062 [-]     
1 26082U 00008B   23330.42949332 -.00000028  00000+0  50191-3 0  9992
2 26082  51.9861 328.2647 0007029 340.4586 166.4222 12.43422059425860
GLOBALSTAR M060 [-]     
1 26083U 00008C   23330.85515476 -.00000122  00000+0 -31188-3 0  9999
2 26083  52.0006 206.6195 0004528  56.2980  24.8545 12.17620472 83137
GLOBALSTAR M064 [-]     
1 26084U 00008D   23330.28916308 -.00000047  00000+0  51878-3 0  9999
2 26084  52.0034 275.3518 0002198  45.2153 314.8858 11.88512237 99459
GLOBALSTAR M065 [+]     
1 31571U 07020A   23330.71780101 -.00000031  00000+0  40758-3 0  9993
2 31571  51.9865 156.4262 0010765 126.4933 314.4371 12.61959075761637
GLOBALSTAR M069 [+]     
1 31573U 07020C   23330.60223948 -.00000092  00000+0  66841-4 0  9993
2 31573  51.9929 112.8659 0001204 116.0825 324.2864 12.62261258762748
GLOBALSTAR M072 [+]     
1 31574U 07020D   23330.84564330 -.00000047  00000+0  31959-3 0  9994
2 31574  52.0071 207.8853 0001495  75.7978  48.9081 12.62269005761043
GLOBALSTAR M071 [P]     
1 31576U 07020F   23330.71331771 -.00000094  00000+0  52631-4 0  9996
2 31576  52.0048 117.5357 0000956 100.2306   3.9701 12.62273192423941
